CTC2_L_00678007-03
1 75161U 24152WS  26037.47800926  .00000000  00000+0  00000-0 0  9997
2 75161  50.0000 180.0000 0000000   0.0000 144.0000  1.86512136    19
CTC2_L_00678007-04
1 75162U 25081YB  26037.47800926  .00000000  00000+0  00000-0 0  9990
2 75162  50.0000 180.0000 0000000   0.0000 180.0000  1.86512136    10
CTC2_L_00678007-05
1 75163U 23729LP  26037.47800926  .00000000  00000+0  00000-0 0  9998
2 75163  50.0000 180.0000 0000000   0.0000 216.0000  1.86512136    11
CTC2_L_00678007-06
1 75164U 26610VM  26037.47800926  .00000000  00000+0  00000-0 0  9991
2 75164  50.0000 180.0000 0000000   0.0000 252.0000  1.86512136    12
CTC2_L_00678007-07
1 75165U 24765TA  26037.47800926  .00000000  00000+0  00000-0 0  9991
2 75165  50.0000 180.0000 0000000   0.0000 288.0000  1.86512136    12
CTC2_L_00678007-08
1 75166U 22953DW  26037.47800926  .00000000  00000+0  00000-0 0  9999
2 75166  50.0000 180.0000 0000000   0.0000 324.0000  1.86512136    14
CTC2_L_00678007-09
1 75167U 26781PC  26037.47800926  .00000000  00000+0  00000-0 0  9993
2 75167  50.0000 180.0000 0000000   0.0000   0.0000  1.86512136    16
CTC2_L_00678007-10
1 75168U 24823PX  26037.47800926  .00000000  00000+0  00000-0 0  9999
2 75168  50.0000 180.0000 0000000   0.0000  36.0000  1.86512136    16
CTC2_L_00678008-01
1 75169U 23149EQ  26037.47800926  .00000000  00000+0  00000-0 0  9990
2 75169  50.0000 210.0000 0000000   0.0000  84.0000  1.86512136    14
CTC2_L_00678008-02
1 75170U 26605KQ  26037.47800926  .00000000  00000+0  00000-0 0  9992
2 75170  50.0000 210.0000 0000000   0.0000 120.0000  1.86512136    17
CTC2_L_00678008-03
1 75171U 22774BT  26037.47800926  .00000000  00000+0  00000-0 0  9996
2 75171  50.0000 210.0000 0000000   0.0000 156.0000  1.86512136    17
CTC2_L_00678008-04
1 75172U 23040QB  26037.47800926  .00000000  00000+0  00000-0 0  9994
2 75172  50.0000 210.0000 0000000   0.0000 192.0000  1.86512136    18
CTC2_L_00678008-05
1 75173U 25599WO  26037.47800926  .00000000  00000+0  00000-0 0  9996
2 75173  50.0000 210.0000 0000000   0.0000 228.0000  1.86512136    19
CTC2_L_00678008-06
1 75174U 24910GO  26037.47800926  .00000000  00000+0  00000-0 0  9993
2 75174  50.0000 210.0000 0000000   0.0000 264.0000  1.86512136    10
CTC2_L_00678008-07
1 75175U 23752UY  26037.47800926  .00000000  00000+0  00000-0 0  9997
2 75175  50.0000 210.0000 0000000   0.0000 300.0000  1.86512136    12
CTC2_L_00678008-08
1 75176U 24113Z   26037.47800926  .00000000  00000+0  00000-0 0  9990
2 75176  50.0000 210.0000 0000000   0.0000 336.0000  1.86512136    12
CTC2_L_00678008-09
1 75177U 24459WN  26037.47800926  .00000000  00000+0  00000-0 0  9994
2 75177  50.0000 210.0000 0000000   0.0000  12.0000  1.86512136    14
CTC2_L_00678008-10
1 75178U 23824IF  26037.47800926  .00000000  00000+0  00000-0 0  9990
2 75178  50.0000 210.0000 0000000   0.0000  48.0000  1.86512136    14
CTC2_L_00678009-01
1 75179U 25075UV  26037.47800926  .00000000  00000+0  00000-0 0  9991
2 75179  50.0000 240.0000 0000000   0.0000  96.0000  1.86512136    11
CTC2_L_00678009-02
1 75180U 26391UO  26037.47800926  .00000000  00000+0  00000-0 0  9995
2 75180  50.0000 240.0000 0000000   0.0000 132.0000  1.86512136    14
CTC2_L_00678009-03
1 75181U 22479DC  26037.47800926  .00000000  00000+0  00000-0 0  9999
2 75181  50.0000 240.0000 0000000   0.0000 168.0000  1.86512136    14
CTC2_L_00678009-04
1 75182U 22094DZ  26037.47800926  .00000000  00000+0  00000-0 0  9993
2 75182  50.0000 240.0000 0000000   0.0000 204.0000  1.86512136    16
CTC2_L_00678009-05
1 75183U 26231VO  26037.47800926  .00000000  00000+0  00000-0 0  9991
2 75183  50.0000 240.0000 0000000   0.0000 240.0000  1.86512136    17
CTC2_L_00678009-06
1 75184U 26005VH  26037.47800926  .00000000  00000+0  00000-0 0  9991
2 75184  50.0000 240.0000 0000000   0.0000 276.0000  1.86512136    17
CTC2_L_00678009-07
1 75185U 24661XL  26037.47800926  .00000000  00000+0  00000-0 0  9998
2 75185  50.0000 240.0000 0000000   0.0000 312.0000  1.86512136    19
CTC2_L_00678009-08
1 75186U 26466OR  26037.47800926  .00000000  00000+0  00000-0 0  9994
2 75186  50.0000 240.0000 0000000   0.0000 348.0000  1.86512136    19
CTC2_L_00678009-09
1 75187U 23627FN  26037.47800926  .00000000  00000+0  00000-0 0  9991
2 75187  50.0000 240.0000 0000000   0.0000  24.0000  1.86512136    11
CTC2_L_00678009-10
1 75188U 22983OV  26037.47800926  .00000000  00000+0  00000-0 0  9996
2 75188  50.0000 240.0000 0000000   0.0000  60.0000  1.86512136    12
CTC2_L_00678010-01
1 75189U 25858LI  26037.47800926  .00000000  00000+0  00000-0 0  9991
2 75189  50.0000 270.0000 0000000   0.0000 108.0000  1.86512136    19
CTC2_L_00678010-02
1 75190U 22420PR  26037.47800926  .00000000  00000+0  00000-0 0  9995
2 75190  50.0000 270.0000 0000000   0.0000 144.0000  1.86512136    11
CTC2_L_00678010-03
1 75191U 24840DX  26037.47800926  .00000000  00000+0  00000-0 0  9994
2 75191  50.0000 270.0000 0000000   0.0000 180.0000  1.86512136    12
CTC2_L_00678010-04
1 75192U 23512KA  26037.47800926  .00000000  00000+0  00000-0 0  9990
2 75192  50.0000 270.0000 0000000   0.0000 216.0000  1.86512136    13
CTC2_L_00678010-05
1 75193U 25368XH  26037.47800926  .00000000  00000+0  00000-0 0  9992
2 75193  50.0000 270.0000 0000000   0.0000 252.0000  1.86512136    14
CTC2_L_00678010-06
1 75194U 24615QS  26037.47800926  .00000000  00000+0  00000-0 0  9997
2 75194  50.0000 270.0000 0000000   0.0000 288.0000  1.86512136    14
CTC2_L_00678010-07
1 75195U 25989AY  26037.47800926  .00000000  00000+0  00000-0 0  9993
2 75195  50.0000 270.0000 0000000   0.0000 324.0000  1.86512136    16
CTC2_L_00678010-08
1 75196U 25087CD  26037.47800926  .00000000  00000+0  00000-0 0  9993
2 75196  50.0000 270.0000 0000000   0.0000   0.0000  1.86512136    18
CTC2_L_00678010-09
1 75197U 22270DY  26037.47800926  .00000000  00000+0  00000-0 0  9995
2 75197  50.0000 270.0000 0000000   0.0000  36.0000  1.86512136    18
CTC2_L_00678010-10
1 75198U 22953ZU  26037.47800926  .00000000  00000+0  00000-0 0  9994
2 75198  50.0000 270.0000 0000000   0.0000  72.0000  1.86512136    19
CTC2_L_00678011-01
1 75199U 24292AA  26037.47800926  .00000000  00000+0  00000-0 0  9993
2 75199  50.0000 300.0000 0000000   0.0000 120.0000  1.86512136    18
CTC2_L_00678011-02
1 75200U 24135T   26037.47800926  .00000000  00000+0  00000-0 0  9992
2 75200  50.0000 300.0000 0000000   0.0000 156.0000  1.86512136    10
CTC2_L_00678011-03
1 75201U 22062DI  26037.47800926  .00000000  00000+0  00000-0 0  9990
2 75201  50.0000 300.0000 0000000   0.0000 192.0000  1.86512136    11
CTC2_L_00678011-04
1 75202U 26026MU  26037.47800926  .00000000  00000+0  00000-0 0  9995
2 75202  50.0000 300.0000 0000000   0.0000 228.0000  1.86512136    12
CTC2_L_00678011-05
1 75203U 22756TW  26037.47800926  .00000000  00000+0  00000-0 0  9992
2 75203  50.0000 300.0000 0000000   0.0000 264.0000  1.86512136    13
CTC2_L_00678011-06
1 75204U 22998FN  26037.47800926  .00000000  00000+0  00000-0 0  9991
2 75204  50.0000 300.0000 0000000   0.0000 300.0000  1.86512136    15
CTC2_L_00678011-07
1 75205U 26026UU  26037.47800926  .00000000  00000+0  00000-0 0  9998
2 75205  50.0000 300.0000 0000000   0.0000 336.0000  1.86512136    15
CTC2_L_00678011-08
1 75206U 26846IW  26037.47800926  .00000000  00000+0  00000-0 0  9999
2 75206  50.0000 300.0000 0000000   0.0000  12.0000  1.86512136    17
CTC2_L_00678011-09
1 75207U 24462SC  26037.47800926  .00000000  00000+0  00000-0 0  9992
2 75207  50.0000 300.0000 0000000   0.0000  48.0000  1.86512136    17
CTC2_L_00678011-10
1 75208U 24916C   26037.47800926  .00000000  00000+0  00000-0 0  9997
2 75208  50.0000 300.0000 0000000   0.0000  84.0000  1.86512136    18
CTC2_L_00678012-01
1 75209U 23340GU  26037.47800926  .00000000  00000+0  00000-0 0  9998
2 75209  50.0000 330.0000 0000000   0.0000 132.0000  1.86512136    16
CTC2_L_00678012-02
1 75210U 23256UW  26037.47800926  .00000000  00000+0  00000-0 0  9996
2 75210  50.0000 330.0000 0000000   0.0000 168.0000  1.86512136    17
CTC2_L_00678012-03
1 75211U 26007XL  26037.47800926  .00000000  00000+0  00000-0 0  9994
2 75211  50.0000 330.0000 0000000   0.0000 204.0000  1.86512136    19
CTC2_L_00678012-04
1 75212U 24716QM  26037.47800926  .00000000  00000+0  00000-0 0  9990
2 75212  50.0000 330.0000 0000000   0.0000 240.0000  1.86512136    10
CTC2_L_00678012-05
1 75213U 25304QA  26037.47800926  .00000000  00000+0  00000-0 0  9995
2 75213  50.0000 330.0000 0000000   0.0000 276.0000  1.86512136    10
CTC2_L_00678012-06
1 75214U 25356OV  26037.47800926  .00000000  00000+0  00000-0 0  9993
2 75214  50.0000 330.0000 0000000   0.0000 312.0000  1.86512136    12
CTC2_L_00678012-07
1 75215U 25354RL  26037.47800926  .00000000  00000+0  00000-0 0  9992
2 75215  50.0000 330.0000 0000000   0.0000 348.0000  1.86512136    12
CTC2_L_00678012-08
1 75216U 24989IA  26037.47800926  .00000000  00000+0  00000-0 0  9996
2 75216  50.0000 330.0000 0000000   0.0000  24.0000  1.86512136    14
CTC2_L_00678012-09
1 75217U 24884N   26037.47800926  .00000000  00000+0  00000-0 0  9991
2 75217  50.0000 330.0000 0000000   0.0000  60.0000  1.86512136    15
CTC2_L_00678012-10
1 75218U 24744GQ  26037.47800926  .00000000  00000+0  00000-0 0  9997
2 75218  50.0000 330.0000 0000000   0.0000  96.0000  1.86512136    15
